*******************************************************************************
 Revised: Mar 12, 2021           Ganymede / (Jupiter)                       503

 SATELLITE PHYSICAL PROPERTIES:
  Mean radius (km)       = 2631.2   +- 1.7    Density (g cm^-3)= 1.942 +- 0.005
  GM (km^3/s^2)          = 9887.8328+- 0.0074 Geometric Albedo = 0.43  +- 0.02

 SATELLITE ORBIT (at J2000.0 epoch, 2000-Jan-1.5):
  Semi-major axis, a (km) ~ 1,070,000         Orbital period   ~ 7.155 d
  Eccentricity, e         ~ 0.00146           Rotational period= Synchronous
  Inclination, i  (deg)   ~ 0.207 
*******************************************************************************
 
 
*******************************************************************************
Ephemeris / WWW_USER Thu Apr  8 14:47:41 2021 Pasadena, USA      / Horizons
*******************************************************************************
Target body name: Ganymede (503)                  {source: jup365_merged}
Center body name: Jupiter (599)                   {source: jup365_merged}
Center-site name: BODY CENTER
*******************************************************************************
Start time      : A.D. 1986-Apr-24 12:00:00.0000 TDB
Stop  time      : A.D. 2013-Sep-09 12:00:00.0000 TDB
Step-size       : 144000 minutes
*******************************************************************************
Center geodetic : 0.00000000,0.00000000,0.0000000 {W-lon(deg),Lat(deg),Alt(km)}
Center cylindric: 0.00000000,0.00000000,0.0000000 {W-lon(deg),Dxy(km),Dz(km)}
Center radii    : 71492.0 x 71492.0 x 66854.0 km  {Equator, meridian, pole}    
Output units    : AU-D
Output type     : GEOMETRIC cartesian states
Output format   : 2 (position and velocity)
Reference frame : ICRF
*******************************************************************************
JDTDB
   X     Y     Z
   VX    VY    VZ
*******************************************************************************
$$SOE
2450245.000000000 = A.D. 1996-Jun-10 12:00:00.0000 TDB 
 X = 6.015381511008102E-03 Y =-3.506579010820615E-03 Z =-1.602831005105425E-03
 VX= 3.403554590373584E-03 VY= 4.760074354697875E-03 VZ= 2.314055278764961E-03
2450345.000000000 = A.D. 1996-Sep-18 12:00:00.0000 TDB 
 X = 5.402049143034466E-03 Y =-4.248862808897193E-03 Z =-1.964724115374055E-03
 VX= 4.127782640619241E-03 VY= 4.264256935180235E-03 VZ= 2.086317022848929E-03
2450445.000000000 = A.D. 1996-Dec-27 12:00:00.0000 TDB 
 X = 4.670233522325694E-03 Y =-4.907161530892023E-03 Z =-2.288156783923489E-03
 VX= 4.765333755860396E-03 VY= 3.679312426996008E-03 VZ= 1.814970746001923E-03
2450545.000000000 = A.D. 1997-Apr-06 12:00:00.0000 TDB 
 X = 3.836632766030864E-03 Y =-5.459143142629783E-03 Z =-2.562065736854060E-03
 VX= 5.308535171861633E-03 VY= 3.021787659622409E-03 VZ= 1.507790465208200E-03
2450645.000000000 = A.D. 1997-Jul-15 12:00:00.0000 TDB 
 X = 2.928304468199753E-03 Y =-5.890798294243849E-03 Z =-2.779558025248157E-03
 VX= 5.741273379556875E-03 VY= 2.302445033475613E-03 VZ= 1.169586990069495E-03
2450745.000000000 = A.D. 1997-Oct-23 12:00:00.0000 TDB 
 X = 1.966054748646957E-03 Y =-6.201842578078080E-03 Z =-2.940162448859732E-03
 VX= 6.054682196600637E-03 VY= 1.534935960804261E-03 VZ= 8.069297880975066E-04
2450845.000000000 = A.D. 1998-Jan-31 12:00:00.0000 TDB 
 X = 9.637225132447259E-04 Y =-6.389425512895746E-03 Z =-3.042235704578311E-03
 VX= 6.237687236699682E-03 VY= 7.337039312575540E-04 VZ= 4.264299285393625E-04
2450945.000000000 = A.D. 1998-May-11 12:00:00.0000 TDB 
 X =-6.482319415799941E-05 Y =-6.447756543522346E-03 Z =-3.082977965714701E-03
 VX= 6.291053340373448E-03 VY=-8.197226688386164E-05 VZ= 3.736311153351318E-05
2451045.000000000 = A.D. 1998-Aug-19 12:00:00.0000 TDB 
 X =-1.099494393085418E-03 Y =-6.367292614800879E-03 Z =-3.057416238854058E-03
 VX= 6.215697844865015E-03 VY=-8.979260923233609E-04 VZ=-3.534138727162062E-04
2451145.000000000 = A.D. 1998-Nov-27 12:00:00.0000 TDB 
 X =-2.107103091566387E-03 Y =-6.149179592033104E-03 Z =-2.965734758546907E-03
 VX= 6.015731359835436E-03 VY=-1.695189919045829E-03 VZ=-7.369217526309353E-04
2451245.000000000 = A.D. 1999-Mar-07 12:00:00.0000 TDB 
 X =-3.063648706451830E-03 Y =-5.805596444316193E-03 Z =-2.813522842620127E-03
 VX= 5.689811154189000E-03 VY=-2.457620706590544E-03 VZ=-1.105307051201986E-03
2451345.000000000 = A.D. 1999-Jun-15 12:00:00.0000 TDB 
 X =-3.953320151110059E-03 Y =-5.348719722366824E-03 Z =-2.606258641269550E-03
 VX= 5.244655086555646E-03 VY=-3.163564774075779E-03 VZ=-1.448196903980680E-03
2451445.000000000 = A.D. 1999-Sep-23 12:00:00.0000 TDB 
 X =-4.767727848616238E-03 Y =-4.783520742529030E-03 Z =-2.346382263080059E-03
 VX= 4.689369831451704E-03 VY=-3.803462772186080E-03 VZ=-1.760958877892165E-03
2451545.000000000 = A.D. 2000-Jan-01 12:00:00.0000 TDB 
 X =-5.490352844041520E-03 Y =-4.111593771418010E-03 Z =-2.034374686940568E-03
 VX= 4.035698118549232E-03 VY=-4.365061608943227E-03 VZ=-2.037487005555073E-03
2451645.000000000 = A.D. 2000-Apr-10 12:00:00.0000 TDB 
 X =-6.096508600871840E-03 Y =-3.347174949143354E-03 Z =-1.676688889590645E-03
 VX= 3.300175483976347E-03 VY=-4.842026650435608E-03 VZ=-2.274692706476557E-03
2451745.000000000 = A.D. 2000-Jul-19 12:00:00.0000 TDB 
 X =-6.568364253770324E-03 Y =-2.517665389905382E-03 Z =-1.286313745877577E-03
 VX= 2.497275967880733E-03 VY=-5.217137643983131E-03 VZ=-2.464119604555505E-03
2451845.000000000 = A.D. 2000-Oct-27 12:00:00.0000 TDB 
 X =-6.903836603759424E-03 Y =-1.646951770847119E-03 Z =-8.744674705418816E-04
 VX= 1.648064243517762E-03 VY=-5.481949652399078E-03 VZ=-2.601439814649056E-03
2451945.000000000 = A.D. 2001-Feb-04 12:00:00.0000 TDB 
 X =-7.103246976700716E-03 Y =-7.448417314032422E-04 Z =-4.458977154578274E-04
 VX= 7.653541540301549E-04 VY=-5.629233442893604E-03 VZ=-2.683163767217528E-03
2452045.000000000 = A.D. 2001-May-15 12:00:00.0000 TDB 
 X =-7.160620107102035E-03 Y = 1.825444769491744E-04 Z =-3.436245967190494E-06
 VX=-1.351585011635462E-04 VY=-5.661076721286366E-03 VZ=-2.709941892833201E-03
2452145.000000000 = A.D. 2001-Aug-23 12:00:00.0000 TDB 
 X =-7.063828912704762E-03 Y = 1.115649705471972E-03 Z = 4.438721914866505E-04
 VX=-1.037963496910715E-03 VY=-5.577783163035653E-03 VZ=-2.681809342010615E-03
2452245.000000000 = A.D. 2001-Dec-01 12:00:00.0000 TDB 
 X =-6.815330494340553E-03 Y = 2.019743266264681E-03 Z = 8.792703713437999E-04
 VX=-1.916972405842523E-03 VY=-5.382658496667056E-03 VZ=-2.599982693281970E-03
2452345.000000000 = A.D. 2002-Mar-11 12:00:00.0000 TDB 
 X =-6.430929272625909E-03 Y = 2.871082107816449E-03 Z = 1.291315466928893E-03
 VX=-2.752235355540039E-03 VY=-5.077652758292263E-03 VZ=-2.465032324031628E-03
2452445.000000000 = A.D. 2002-Jun-19 12:00:00.0000 TDB 
 X =-5.923518866552241E-03 Y = 3.660639682753983E-03 Z = 1.675531712488454E-03
 VX=-3.524621720024588E-03 VY=-4.667687918225682E-03 VZ=-2.279147252715442E-03
2452545.000000000 = A.D. 2002-Sep-27 12:00:00.0000 TDB 
 X =-5.294040115761236E-03 Y = 4.385479391309174E-03 Z = 2.030402092270482E-03
 VX=-4.228254824622813E-03 VY=-4.158667149921412E-03 VZ=-2.044962713914299E-03
2452645.000000000 = A.D. 2003-Jan-05 12:00:00.0000 TDB 
 X =-4.544860503620315E-03 Y = 5.026875729841322E-03 Z = 2.347072172672829E-03
 VX=-4.847135845326136E-03 VY=-3.561312078546986E-03 VZ=-1.767376769531206E-03
2452745.000000000 = A.D. 2003-Apr-15 12:00:00.0000 TDB 
 X =-3.696909811247522E-03 Y = 5.559891432293155E-03 Z = 2.613215276148973E-03
 VX=-5.370645833042554E-03 VY=-2.893842992856120E-03 VZ=-1.455035746113429E-03
2452845.000000000 = A.D. 2003-Jul-24 12:00:00.0000 TDB 
 X =-2.781775277445776E-03 Y = 5.969809028364908E-03 Z = 2.821379534171095E-03
 VX=-5.780899582154296E-03 VY=-2.170440394026862E-03 VZ=-1.114356715640459E-03
2452945.000000000 = A.D. 2003-Nov-01 12:00:00.0000 TDB 
 X =-1.821093288695466E-03 Y = 6.258189216328793E-03 Z = 2.972086784435404E-03
 VX=-6.070881706011704E-03 VY=-1.406266199307079E-03 VZ=-7.525955637192764E-04
2453045.000000000 = A.D. 2004-Feb-09 12:00:00.0000 TDB 
 X =-8.198905168555647E-04 Y = 6.425455945046545E-03 Z = 3.065333020402175E-03
 VX=-6.233179881454575E-03 VY=-6.086797826082537E-04 VZ=-3.731498037176690E-04
2453145.000000000 = A.D. 2004-May-19 12:00:00.0000 TDB 
 X = 2.100547581845276E-04 Y = 6.463378977855043E-03 Z = 3.097120805860255E-03
 VX=-6.267927211596355E-03 VY= 2.045644811037354E-04 VZ= 1.554783053116081E-05
2453245.000000000 = A.D. 2004-Aug-27 12:00:00.0000 TDB 
 X = 1.241850566991787E-03 Y = 6.362359959653915E-03 Z = 3.062476069898843E-03
 VX=-6.175669133336764E-03 VY= 1.015993905117593E-03 VZ= 4.050064408420872E-04
2453345.000000000 = A.D. 2004-Dec-05 12:00:00.0000 TDB 
 X = 2.238484765183526E-03 Y = 6.126107900273700E-03 Z = 2.962616420006629E-03
 VX=-5.960539398093579E-03 VY= 1.803059077243845E-03 VZ= 7.844836755694186E-04
2453445.000000000 = A.D. 2005-Mar-15 12:00:00.0000 TDB 
 X = 3.179098404841100E-03 Y = 5.768395980639393E-03 Z = 2.803982608281980E-03
 VX=-5.623600895770101E-03 VY= 2.551993739769253E-03 VZ= 1.147339003052761E-03
2453545.000000000 = A.D. 2005-Jun-23 12:00:00.0000 TDB 
 X = 4.056206190963321E-03 Y = 5.298143128902703E-03 Z = 2.590635174164802E-03
 VX=-5.167471906337928E-03 VY= 3.246861738992971E-03 VZ= 1.485872220278640E-03
2453645.000000000 = A.D. 2005-Oct-01 12:00:00.0000 TDB 
 X = 4.860367806733248E-03 Y = 4.717653822028412E-03 Z = 2.323591122244967E-03
 VX=-4.601178889132023E-03 VY= 3.878312184514138E-03 VZ= 1.795594849182646E-03
2453745.000000000 = A.D. 2006-Jan-09 12:00:00.0000 TDB 
 X = 5.568620488507601E-03 Y = 4.032376209594320E-03 Z = 2.005206654027018E-03
 VX=-3.938220515255521E-03 VY= 4.430061529117027E-03 VZ= 2.068459076415141E-03
2453845.000000000 = A.D. 2006-Apr-19 12:00:00.0000 TDB 
 X = 6.155756253720651E-03 Y = 3.260585519663009E-03 Z = 1.643777922481279E-03
 VX=-3.198284690800645E-03 VY= 4.894482411217010E-03 VZ= 2.300586972870168E-03
